#aV2008  3  6  0  0   .00000000      96 DD+AD WGS84 FIT  NGA
## 1469 345600.00000000   900.00000000 54531  .0000000000000
+   31     1  2  3  4  5  6  8  9 10 11 12 13 14 15 16 17 18
+         19 20 21 22 23 24 25 26 27 28 29 30 31 32  0  0  0
+          0  0  0  0  0  0  0  0  0  0  0  0  0  0  0  0  0
+          0  0  0  0  0  0  0  0  0  0  0  0  0  0  0  0  0
+          0  0  0  0  0  0  0  0  0  0  0  0  0  0  0  0  0
++         0  0  0  0  0  0  0  0  0  0  0  0  0  0  0  0  0
++         0  0  0  0  0  0  0  0  0  0  0  0  0  0  0  0  0
++         0  0  0  0  0  0  0  0  0  0  0  0  0  0  0  0  0
++         0  0  0  0  0  0  0  0  0  0  0  0  0  0  0  0  0
++         0  0  0  0  0  0  0  0  0  0  0  0  0  0  0  0  0
%c cc cc ccc ccc cccc cccc cccc cccc ccccc ccccc ccccc ccccc
%c cc cc ccc ccc cccc cccc cccc cccc ccccc ccccc ccccc ccccc
%f  0.0000000  0.000000000  0.00000000000  0.000000000000000
%f  0.0000000  0.000000000  0.00000000000  0.000000000000000
%i    0    0    0    0      0      0      0      0         0
%i    0    0    0    0      0      0      0      0         0
/*      NGA, ST. LOUIS,MO.                                  
/*   EPHEMERIS COMPUTED FROM  3 DAYS OF DATA                
/* CCCCCCCCCCCCCCCCCCCCCCCCCCCCCCCCCCCCCCCCCCCCCCCCCCCCCCCCC
/* CCCCCCCCCCCCCCCCCCCCCCCCCCCCCCCCCCCCCCCCCCCCCCCCCCCCCCCCC
*  2008  3  6 21 30   .00000000                                                 
P  1 -18886.741869 -17316.573674  -6908.933366    190.487609                    
V  1  -4094.712081  -8224.299366  30766.231329       .026053                    
P  2  15310.551400   3553.465216 -21573.860342    179.976634                    
V  2  -8463.390018  25701.909080  -2121.102389       .030903                    
P  3 -21892.584357  -6887.002109  13407.738541    196.806560                    
V  3 -10652.953220 -14036.508803 -23807.841089       .051655                    
P  4   9571.213545  15177.645171 -19564.124013    -21.343367                    
V  4  -9991.709755  22763.186178  13196.307913      -.070582                    
P  5  15211.396411 -15753.179662 -15193.333620    713.240073                    
V  5  18894.068944  -2769.779582  22315.115773       .123460                    
P  6 -12400.429260 -22026.996552  -7958.544699     52.800739                    
V  6   9590.579857   5259.487857 -28912.962077       .160207                    
P  8   1938.829420  21557.893259  14979.206700   -143.813953                    
V  8  -9117.766485  17140.386958 -23804.180366      -.014757                    
P  9  13997.489382 -19134.580715  11178.638060    113.888493                    
V  9  -2168.562343  15238.508189  27466.416572       .017452                    
P 10  26286.885398   -700.744301  -4979.042807   -261.574302                    
V 10  -5651.795468   3261.857400 -30796.826999      -.592703                    
P 11 -11530.738233  21460.472953  10045.754163     26.906201                    
V 11  -2542.788117 -13789.520096  26473.994742      -.000404                    
P 12  20322.967441 -12137.291470 -11868.901752   -357.719434                    
V 12  15422.940740   -422.560934  26708.399645      -.005798                    
P 13   2281.703507  20573.520873 -16770.386849    243.979045                    
V 13 -13776.578627 -15886.206386 -21474.507036       .020351                    
P 14 -14974.617237 -21786.292886   3134.743802   -290.538502                    
V 14   3811.211222   1848.764534  31994.241882       .038516                    
P 15  16992.628691  -2267.038309  20312.001984    -82.764143                    
V 15  16172.187401  20058.405890 -11303.093851      -.036873                    
P 16 -24940.731254  -2181.693625  -9065.812118    132.093605                    
V 16  11015.501402  -4194.292527 -28868.517105      -.007637                    
P 17  15017.296300  21739.192908   3477.218325     41.431451                    
V 17  -4848.038202  -1630.026735  31231.728524      -.006274                    
P 18   2983.775340 -15827.957115  21240.391999   -198.658729                    
V 18  26503.745995  -3110.357053  -6437.558626       .032180                    
P 19 -16812.274381   1687.855018  20616.491787     23.293750                    
V 19 -14808.458477 -21333.213323 -10204.619572       .013142                    
P 20 -18198.762240  13720.629072 -13711.544654    119.162847                    
V 20 -17419.995522    985.516601  24359.693193      -.007906                    
P 21   3584.208838 -24922.645232   7585.575372     70.165830                    
V 21   7006.104430  -7608.431902 -29528.628715      -.008741                    
P 22 -12357.961386 -12753.321115  19915.731233    209.312073                    
V 22  24578.609530  -4690.672574  12301.675312       .005718                    
P 23  -9835.108140  11500.210861 -21881.819026    339.087828                    
V 23 -18133.013767 -20815.398297  -3024.200264       .026742                    
P 24  12982.056195 -22845.489107  -4642.257647     76.001629                    
V 24    253.591899   6664.915070 -30670.991554       .030690                    
P 25  -7831.073595  25356.416032  -2108.328584    524.679868                    
V 25  -1778.915254  -3646.278209 -31548.708043       .085233                    
P 26  18028.142574   2934.547477  19019.807259    201.051711                    
V 26  14775.822984  20044.362453 -16155.668919       .095393                    
P 27  -2758.856950  25694.328606   6414.970241    172.499209                    
V 27  -4429.159750   6332.191915 -30626.809913       .024989                    
P 28   9987.255632  13303.212171  21152.428257    -16.134844                    
V 28 -25507.459640   4618.086583   8968.119924      -.004558                    
P 29   1047.247231 -19008.316382 -18416.068986    -51.957635                    
V 29  16179.639550  17270.083545 -16773.498284       .037005                    
P 30   9051.186168 -16235.367459 -19268.101110     66.611759                    
V 30  23577.287153  -3836.309420  14660.078585       .014902                    
P 31 -10257.627555 -13282.870635 -20351.324422    -11.777853                    
V 31   9621.398474 -24526.788307  11141.946324      -.014254                    
P 32 -22576.565580  -6478.370149  12690.436936    244.139273                    
V 32  15177.588934  -3581.292076  26232.982422       .082646                    
EOF
